STARLINK-2022           
1 47643U 21012Z   23223.95326034 -.00005019  00000+0 -31829-3 0  9996
2 47643  53.0539 314.7537 0001199  92.6571 267.4555 15.06401371137958
